NORAD_CAT_ID,OBJECT_NAME,OBJECT_TYPE,EPOCH,MEAN_MOTION,ECCENTRICITY,INCLINATION,RA_OF_ASC_NODE,ARG_OF_PERICENTER,MEAN_ANOMALY,BSTAR,MEAN_MOTION_DOT,MEAN_MOTION_DDOT,TLE_LINE0,TLE_LINE1,TLE_LINE2,SEMIMAJOR_AXIS,PERIOD,APOGEE,PERIGEE,DECAYED
53030.0,STARLINK-4160,PAYLOAD,2023-10-04 21:59:09,15.08856745,0.0001202,53.2159,105.1934,90.5946,269.5184,0.00045011,6.886e-05,0.0,0 STARLINK-4160,1 53030U 22076AW  23277.91608427  .00006886  00000-0  45011-3 0  9998,2 53030  53.2159 105.1934 0001202  90.5946 269.5184 15.08856745 69110,6917.829,95.436,540.526,538.863,0.0
53030.0,STARLINK-4160,PAYLOAD,2023-10-05 05:56:05,15.08846138,0.0001317,53.2158,103.7075,89.1518,270.9625,0.00022187,3.245e-05,0.0,0 STARLINK-4160,1 53030U 22076AW  23278.24728819  .00003245  00000-0  22187-3 0  9998,2 53030  53.2158 103.7075 0001317  89.1518 270.9625 15.08846138 69633,6917.862,95.437,540.638,538.816,0.0
53030.0,STARLINK-4160,PAYLOAD,2023-10-05 12:17:38,15.08847852,0.0001861,53.2147,102.5187,83.4315,276.6889,0.00026362,3.911e-05,0.0,0 STARLINK-4160,1 53030U 22076AW  23278.51224966  .00003911  00000-0  26362-3 0  9991,2 53030  53.2147 102.5187 0001861  83.4315 276.6889 15.08847852 69200,6917.856,95.437,541.009,538.434,0.0
53030.0,STARLINK-4160,PAYLOAD,2023-10-05 18:39:10,15.08844555,0.0001459,53.2149,101.3283,87.8106,272.3053,0.00019677,2.845e-05,0.0,0 STARLINK-4160,1 53030U 22076AW  23278.77720860  .00002845  00000-0  19677-3 0  9999,2 53030  53.2149 101.3283 0001459  87.8106 272.3053 15.08844555 69242,6917.866,95.437,540.741,538.722,0.0
53030.0,STARLINK-4160,PAYLOAD,2023-10-06 05:46:52,15.08843266,0.0001478,53.2151,99.247,86.8054,273.3107,0.00016069,2.271e-05,0.0,0 STARLINK-4160,1 53030U 22076AW  23279.24088973  .00002271  00000-0  16069-3 0  9999,2 53030  53.2151  99.2470 0001478  86.8054 273.3107 15.08843266 69788,6917.87,95.437,540.758,538.713,0.0
53030.0,STARLINK-4160,PAYLOAD,2023-10-06 12:08:25,15.08837385,0.0001512,53.2149,98.0581,86.8442,273.2723,-8.9717e-05,-1.715e-05,0.0,0 STARLINK-4160,1 53030U 22076AW  23279.50585183 -.00001715  00000-0 -89717-4 0  9998,2 53030  53.2149  98.0581 0001512  86.8442 273.2723 15.08837385 69356,6917.888,95.438,540.799,538.707,0.0
53030.0,STARLINK-4160,PAYLOAD,2023-10-06 21:40:44,15.08845243,0.0001425,53.2157,96.2727,95.4616,264.6538,-2.7745e-05,-7.3e-06,0.0,0 STARLINK-4160,1 53030U 22076AW  23279.90328935 -.00000730  00000-0 -27745-4 0  9991,2 53030  53.2157  96.2727 0001425  95.4616 264.6538 15.08845243 69416,6917.864,95.437,540.715,538.744,0.0
53030.0,STARLINK-4160,PAYLOAD,2023-10-07 11:59:12,15.0883979,0.0001523,53.2155,93.597,89.5636,270.553,0.00015909,2.245e-05,0.0,0 STARLINK-4160,1 53030U 22076AW  23280.49945376  .00002245  00000-0  15909-3 0  9990,2 53030  53.2155  93.5970 0001523  89.5636 270.5530 15.08839790 69507,6917.881,95.438,540.8,538.692,0.0
53030.0,STARLINK-4160,PAYLOAD,2023-10-07 18:20:45,15.08847473,0.0001491,53.2159,92.407,89.4208,270.6955,0.00020061,2.907e-05,0.0,0 STARLINK-4160,1 53030U 22076AW  23280.76440992  .00002907  00000-0  20061-3 0  9994,2 53030  53.2159  92.4070 0001491  89.4208 270.6955 15.08847473 70015,6917.858,95.437,540.754,538.691,0.0
53030.0,STARLINK-4160,PAYLOAD,2023-10-07 21:31:31,15.08848794,0.0001508,53.2159,91.8125,89.5403,270.5762,0.00021843,3.191e-05,0.0,0 STARLINK-4160,1 53030U 22076AW  23280.89688927  .00003191  00000-0  21843-3 0  9995,2 53030  53.2159  91.8125 0001508  89.5403 270.5762 15.08848794 69566,6917.854,95.437,540.762,538.675,0.0
53030.0,STARLINK-4160,PAYLOAD,2023-10-08 11:50:00,15.08836774,0.0001546,53.2161,89.1354,91.7758,268.3411,0.00010406,1.368e-05,0.0,0 STARLINK-4160,1 53030U 22076AW  23281.49305624  .00001368  00000-0  10406-3 0  9999,2 53030  53.2161  89.1354 0001546  91.7758 268.3411 15.08836774 69654,6917.89,95.438,540.825,538.686,0.0
53030.0,STARLINK-4160,PAYLOAD,2023-10-08 18:11:32,15.08842612,0.0001273,53.2157,87.9468,85.5401,274.5736,0.00018788,2.704e-05,0.0,0 STARLINK-4160,1 53030U 22076AW  23281.75801322  .00002704  00000-0  18788-3 0  9990,2 53030  53.2157  87.9468 0001273  85.5401 274.5736 15.08842612 70169,6917.872,95.437,540.618,538.857,0.0
53030.0,STARLINK-4160,PAYLOAD,2023-10-08 19:46:55,15.0884603,0.0001285,53.2162,87.6487,83.3192,276.7946,0.0001867,2.685e-05,0.0,0 STARLINK-4160,1 53030U 22076AW  23281.82425169  .00002685  00000-0  18670-3 0  9997,2 53030  53.2162  87.6487 0001285  83.3192 276.7946 15.08846030 69702,6917.862,95.437,540.616,538.838,0.0
53030.0,STARLINK-4160,PAYLOAD,2023-10-09 11:40:46,15.08841237,0.0001423,53.2166,84.6752,84.8774,275.2381,5.21e-05,5.41e-06,0.0,0 STARLINK-4160,1 53030U 22076AW  23282.48665334  .00000541  00000-0  52100-4 0  9996,2 53030  53.2166  84.6752 0001423  84.8774 275.2381 15.08841237 69806,6917.877,95.437,540.726,538.757,0.0
53030.0,STARLINK-4160,PAYLOAD,2023-10-09 18:02:19,15.08848634,0.0001298,53.216,83.4873,85.8828,274.2312,0.00022307,3.265e-05,0.0,0 STARLINK-4160,1 53030U 22076AW  23282.75161046  .00003265  00000-0  22307-3 0  9998,2 53030  53.2160  83.4873 0001298  85.8828 274.2312 15.08848634 69847,6917.854,95.437,540.617,538.821,0.0
53030.0,STARLINK-4160,PAYLOAD,2023-10-10 11:31:33,15.08842834,0.0001134,53.2161,80.2178,83.4594,276.6527,0.00013541,1.868e-05,0.0,0 STARLINK-4160,1 53030U 22076AW  23283.48025368  .00001868  00000-0  13541-3 0  9992,2 53030  53.2161  80.2178 0001134  83.4594 276.6527 15.08842834 70420,6917.872,95.437,540.521,538.952,0.0
53030.0,STARLINK-4160,PAYLOAD,2023-10-10 19:28:29,15.08847662,0.0001152,53.2163,78.7313,83.1895,276.9228,0.00024532,3.619e-05,0.0,0 STARLINK-4160,1 53030U 22076AW  23283.81145146  .00003619  00000-0  24532-3 0  9994,2 53030  53.2163  78.7313 0001152  83.1895 276.9228 15.08847662 70005,6917.857,95.437,540.519,538.925,0.0
53030.0,STARLINK-4160,PAYLOAD,2023-10-11 03:25:25,15.08834777,0.0001456,53.2183,77.2424,84.8293,275.2865,-4.7713e-05,-1.047e-05,0.0,0 STARLINK-4160,1 53030U 22076AW  23284.14265622 -.00001047  00000-0 -47713-4 0  9995,2 53030  53.2183  77.2424 0001456  84.8293 275.2865 15.08834777 70520,6917.896,95.438,540.769,538.754,0.0
53030.0,STARLINK-4160,PAYLOAD,2023-10-11 11:22:21,15.08834479,0.000153,53.2183,75.7565,86.1249,273.9918,-2.5301e-06,-3.28e-06,0.0,0 STARLINK-4160,1 53030U 22076AW  23284.47385962 -.00000328  00000-0 -25301-5 0  9992,2 53030  53.2183  75.7565 0001530  86.1249 273.9918 15.08834479 70105,6917.897,95.438,540.821,538.704,0.0
53030.0,STARLINK-4160,PAYLOAD,2023-10-12 14:23:54,15.08846794,0.0001256,53.217,70.7019,80.3132,279.8002,0.0002755,4.1e-05,0.0,0 STARLINK-4160,1 53030U 22076AW  23285.59993664  .00004100  00000-0  27550-3 0  9996,2 53030  53.2170  70.7019 0001256  80.3132 279.8002 15.08846794 70272,6917.86,95.437,540.594,538.856,0.0
53030.0,STARLINK-4160,PAYLOAD,2023-10-12 15:59:17,15.08849198,0.0001272,53.2159,70.4041,81.149,278.9646,0.00032761,4.931e-05,0.0,0 STARLINK-4160,1 53030U 22076AW  23285.66617564  .00004931  00000-0  32761-3 0  9998,2 53030  53.2159  70.4041 0001272  81.1490 278.9646 15.08849198 70753,6917.852,95.437,540.597,538.837,0.0
53030.0,STARLINK-4160,PAYLOAD,2023-10-13 03:06:59,15.08847138,0.0001263,53.2163,68.3221,84.9558,275.1578,0.0002591,3.839e-05,0.0,0 STARLINK-4160,1 53030U 22076AW  23286.12985550  .00003839  00000-0  25910-3 0  9997,2 53030  53.2163  68.3221 0001263  84.9558 275.1578 15.08847138 70823,6917.859,95.437,540.597,538.85,0.0
53030.0,STARLINK-4160,PAYLOAD,2023-10-13 14:14:41,15.08843576,0.0001745,53.2184,66.2402,87.2591,272.8601,0.00018629,2.678e-05,0.0,0 STARLINK-4160,1 53030U 22076AW  23286.59353909  .00002678  00000-0  18629-3 0  9994,2 53030  53.2184  66.2402 0001745  87.2591 272.8601 15.08843576 70421,6917.869,95.437,540.942,538.527,0.0
53030.0,STARLINK-4160,PAYLOAD,2023-10-13 15:50:04,15.08844496,0.0001463,53.2175,65.9418,96.5008,263.6151,0.00016993,2.418e-05,0.0,0 STARLINK-4160,1 53030U 22076AW  23286.65977725  .00002418  00000-0  16993-3 0  9993,2 53030  53.2175  65.9418 0001463  96.5008 263.6151 15.08844496 70900,6917.867,95.437,540.744,538.72,0.0
53030.0,STARLINK-4160,PAYLOAD,2023-10-14 14:05:28,15.08849672,0.000155,53.2178,61.7804,95.5005,264.6164,0.0001492,2.088e-05,0.0,0 STARLINK-4160,1 53030U 22076AW  23287.58713333  .00002088  00000-0  14920-3 0  9990,2 53030  53.2178  61.7804 0001550  95.5005 264.6164 15.08849672 70578,6917.851,95.437,540.788,538.644,0.0
53030.0,STARLINK-4160,PAYLOAD,2023-10-14 18:51:37,15.0885382,0.000148,53.2176,60.8852,105.0175,255.0981,0.0002759,4.107e-05,0.0,0 STARLINK-4160,1 53030U 22076AW  23287.78585038  .00004107  00000-0  27590-3 0  9992,2 53030  53.2176  60.8852 0001480 105.0175 255.0981 15.08853820 71073,6917.838,95.437,540.727,538.679,0.0
53030.0,STARLINK-4160,PAYLOAD,2023-10-15 12:20:52,15.08838153,0.0002164,53.2172,57.6106,121.8491,238.2712,3.3262e-05,2.41e-06,0.0,0 STARLINK-4160,1 53030U 22076AW  23288.51449924  .00000241  00000-0  33262-4 0  9996,2 53030  53.2172  57.6106 0002164 121.8491 238.2712 15.08838153 71181,6917.886,95.438,541.248,538.254,0.0
53030.0,STARLINK-4160,PAYLOAD,2023-10-15 13:56:16,15.08835353,0.0001445,53.2178,57.3182,96.2262,263.8895,4.4109e-05,4.14e-06,0.0,0 STARLINK-4160,1 53030U 22076AW  23288.58074129  .00000414  00000-0  44109-4 0  9998,2 53030  53.2178  57.3182 0001445  96.2262 263.8895 15.08835353 70724,6917.895,95.438,540.759,538.76,0.0
53030.0,STARLINK-4160,PAYLOAD,2023-10-15 18:42:25,15.08839545,0.0001479,53.2181,56.4258,95.5566,264.5595,0.00011162,1.489e-05,0.0,0 STARLINK-4160,1 53030U 22076AW  23288.77945937  .00001489  00000-0  11162-3 0  9998,2 53030  53.2181  56.4258 0001479  95.5566 264.5595 15.08839545 70753,6917.882,95.438,540.77,538.724,0.0
53030.0,STARLINK-4160,PAYLOAD,2023-10-16 13:47:03,15.08841264,0.0001519,53.2182,52.8573,88.1996,271.917,0.00014643,2.043e-05,0.0,0 STARLINK-4160,1 53030U 22076AW  23289.57434204  .00002043  00000-0  14643-3 0  9991,2 53030  53.2182  52.8573 0001519  88.1996 271.9170 15.08841264 70879,6917.877,95.437,540.792,538.691,0.0
